<?xml version="1.0" encoding="UTF-8"?>
<kml xmlns="http://www.opengis.net/kml/2.2"><Document><name>Niña — Estate 2026, consuntivo</name>
<Style id="w1"><LineStyle><color>ffe06f3d</color><width>4</width></LineStyle></Style>
<Style id="w2"><LineStyle><color>ff3b74e8</color><width>4</width></LineStyle></Style>
<Style id="w3"><LineStyle><color>ff5b9e2e</color><width>4</width></LineStyle></Style>
<Placemark><name>Settimana 1 · 8–15/8</name><styleUrl>#w1</styleUrl><description>Consuntivo: rotta vera della settimana, dal registro Google Earth dello skipper (Leg 1, cartella "Sardegna '26"). Traccia a scala di crociera, non log di navigazione.</description><LineString><tessellate>1</tessellate><coordinates>9.44493,41.10694,0 9.44972,41.13440,0 9.42602,41.17926,0 9.38457,41.19172,0 9.36083,41.23614,0 9.36156,41.24456,0 9.33095,41.28274,0 9.33240,41.28854,0 9.35294,41.29084,0 9.35847,41.28899,0 9.35862,41.29085,0 9.33356,41.29171,0 9.32804,41.28547,0 9.36578,41.24358,0 9.38950,41.18712,0 9.43535,41.17650,0 9.45549,41.12561,0 9.45026,41.11215,0 9.45433,41.14027,0 9.43224,41.18305,0 9.37552,41.19661,0 9.35565,41.25910,0 9.24302,41.33540,0 9.24869,41.34569,0 9.24897,41.35488,0 9.27084,41.35478,0 9.27840,41.36923,0 9.27213,41.37164,0 9.24881,41.37891,0 9.22693,41.37375,0 9.23305,41.37255,0 9.22839,41.36697,0 9.21075,41.36236,0 9.18010,41.36329,0 9.15736,41.38419,0 9.14716,41.38440,0 9.15284,41.38922,0 9.14351,41.38572,0 9.13243,41.38976,0 9.13359,41.39359,0 9.12805,41.38856,0 9.14745,41.38244,0 9.09596,41.39041,0 8.91829,41.48785,0 8.91596,41.50225,0 8.88205,41.50332,0 8.84090,41.51461,0 8.78000,41.55603,0 8.76390,41.58995,0 8.65464,41.73717,0 8.62323,41.89804,0 8.60882,41.89258,0 8.57316,41.96436,0 8.53006,42.23622,0 8.53379,42.38125,0 8.55438,42.38512,0 8.57518,42.37512,0 8.54700,42.38903,0 8.52690,42.37597,0 8.55006,42.32914,0 8.61603,42.34699,0 8.61211,42.33940,0 8.55007,42.32426,0 8.51740,42.37988,0 8.70508,42.57799,0 8.72632,42.58850,0 8.76179,42.57069,0 8.78960,42.56225,0 8.78992,42.57571,0 8.79269,42.60265,0 8.93122,42.65208,0 9.10604,42.73016,0 9.18960,42.74254,0 9.21588,42.74155,0 9.25782,42.72143,0 9.29199,42.67712,0</coordinates></LineString></Placemark>
<Placemark><name>Settimana 2 · 15–22/8</name><styleUrl>#w2</styleUrl><description>Consuntivo: rotta vera della settimana, dal registro Google Earth dello skipper (Leg 2, cartella "Sardegna '26"). Traccia a scala di crociera, non log di navigazione.</description><LineString><tessellate>1</tessellate><coordinates>9.29477,42.67783,0 9.27535,42.70435,0 9.26222,42.70266,0 9.26403,42.72334,0 9.21905,42.74590,0 9.19972,42.73183,0 9.24033,42.74594,0 9.30204,42.70759,0 9.30662,42.84218,0 9.30803,42.91377,0 9.33590,43.01093,0 9.40952,43.01231,0 9.43886,43.01230,0 9.44924,42.99357,0 9.46977,42.98595,0 9.46896,42.96840,0 9.45588,42.96119,0 9.47106,42.95299,0 9.51051,42.79654,0 9.47670,42.68574,0 9.56258,42.51642,0 9.57662,42.09245,0 9.41905,41.69133,0 9.38042,41.67235,0 9.40864,41.67161,0 9.40391,41.65951,0 9.38850,41.66340,0 9.38775,41.62605,0 9.36487,41.57200,0 9.33057,41.50700,0 9.25428,41.38874,0 9.22804,41.37504,0 9.24191,41.35067,0 9.28290,41.28011,0 9.37291,41.23743,0 9.37979,41.19003,0 9.44968,41.16772,0 9.44805,41.10886,0 9.46506,41.16639,0 9.49150,41.18096,0 9.49043,41.18790,0 9.46746,41.18634,0 9.48095,41.19940,0 9.48474,41.21712,0 9.48581,41.21360,0 9.49086,41.21540,0 9.49017,41.22551,0 9.48315,41.24004,0 9.46553,41.24788,0 9.45684,41.24679,0 9.45002,41.22969,0 9.44591,41.22999,0 9.45348,41.23268,0 9.46050,41.25019,0 9.48556,41.24337,0 9.49519,41.18564,0 9.49267,41.17367,0 9.47399,41.16588,0 9.45357,41.17468,0 9.44986,41.18953,0 9.44833,41.18025,0 9.49479,41.15585,0 9.53505,41.15981,0 9.56515,41.11974,0 9.57880,41.10659,0 9.66971,40.99581,0 9.65449,40.91299,0 9.61829,40.89187,0</coordinates></LineString></Placemark>
<Placemark><name>Settimana 3 · 22–29/8</name><styleUrl>#w3</styleUrl><description>Consuntivo: rotta vera della settimana, dal registro Google Earth dello skipper (Leg 3, cartella "Sardegna '26"). Traccia a scala di crociera, non log di navigazione.</description><LineString><tessellate>1</tessellate><coordinates>9.62126,40.89082,0 9.65887,40.89144,0 9.73266,40.84386,0 9.72048,40.82750,0 9.68674,40.80274,0 9.67716,40.80046,0 9.69816,40.80230,0 9.71236,40.82752,0 9.73730,40.84406,0 9.65745,40.88509,0 9.64679,40.88516,0 9.64349,40.88921,0 9.66299,40.91531,0 9.67406,41.00246,0 9.54483,41.07906,0 9.56616,41.07856,0 9.57666,41.12447,0 9.54137,41.15967,0 9.50159,41.16204,0 9.38641,41.18504,0 9.35587,41.22544,0 9.33592,41.22896,0 9.32876,41.24961,0 9.32779,41.28338,0 9.35938,41.29147,0 9.32555,41.29131,0 9.23337,41.33674,0 9.17936,41.36165,0 9.15227,41.38197,0 9.14495,41.38481,0 9.15575,41.38958,0 9.14108,41.38476,0 9.09392,41.38850,0 8.91543,41.48498,0 8.91260,41.50461,0 8.88376,41.49994,0 8.82899,41.51598,0 8.84835,41.53785,0 8.81209,41.54350,0 8.81402,41.55097,0 8.78492,41.55557,0 8.75985,41.58815,0 8.80139,41.64332,0 8.81567,41.64199,0 8.81704,41.63350,0 8.82463,41.63925,0 8.79645,41.64628,0 8.77492,41.55855,0 8.91312,41.47734,0 8.98289,41.46919,0 9.01544,41.47528,0 9.01261,41.47225,0 9.10480,41.41894,0 9.09230,41.41673,0 9.08556,41.38912,0 9.15801,41.36673,0 9.21890,41.36576,0 9.22947,41.36457,0 9.23599,41.37300,0 9.22518,41.37475,0 9.24308,41.36964,0 9.24056,41.33745,0 9.24936,41.33364,0 9.25212,41.33801,0 9.25512,41.33264,0 9.33395,41.25277,0 9.33676,41.22261,0 9.36778,41.20710,0 9.38380,41.18629,0 9.44015,41.17981,0 9.45433,41.18851,0 9.44656,41.17982,0 9.45380,41.14822,0 9.44704,41.10497,0</coordinates></LineString></Placemark>
</Document></kml>
